[
    {
        "Altitude(m)": 610405.3045936141,
        "Argument of Periapsis(deg)": 0.0,
        "Eccentricity": 0.0,
        "Inclination(deg)": 60.0,
        "Latitude(deg)": 52.11122070868506,
        "Longitude(deg)": -162.52244054721368,
        "Mean Anomaly(deg)": 114.54549999999999,
        "RAAN(deg)": 165.0,
        "Satellite Name": "Test1 733",
        "Satellite Number": 733,
        "Semi-Major Axis(m)": 6980739.136638005,
        "Time(s)": 0
    },
    {
        "Altitude(m)": 610321.8769762036,
        "Argument of Periapsis(deg)": 0.00010418945913296404,
        "Eccentricity": 0.0,
        "Inclination(deg)": 60.0,
        "Latitude(deg)": 51.745934200799276,
        "Longitude(deg)": -161.75354944118374,
        "Mean Anomaly(deg)": 115.16560614546184,
        "RAAN(deg)": 164.99957995086024,
        "Satellite Name": "Test1 733",
        "Satellite Number": 733,
        "Semi-Major Axis(m)": 6980739.136638005,
        "Time(s)": 10
    }
]